STARLINK-30434          
1 57875U 23144M   26050.30183219  .00000711  00000+0  67737-4 0  9998
2 57875  43.0025  27.4717 0001110 267.1382  92.9333 15.02533816134852
STARLINK-30429          
1 57876U 23144N   26050.36498125  .00000553  00000+0  56014-4 0  9990
2 57876  43.0032  27.0875 0001089 265.8742  94.1976 15.02533712134854
STARLINK-30284          
1 57877U 23144P   26051.15360631  .00000234  00000+0  32409-4 0  9997
2 57877  43.0050 344.4421 0001172 260.3740  99.6970 15.02535827135415
STARLINK-30433          
1 57878U 23144Q   26051.25002315  .00048916  00000+0  31021-2 0  9997
2 57878  43.0011  22.1667 0000916 318.8964 201.6560 15.08190431  5833
STARLINK-30358          
1 57879U 23144R   26051.22250328  .00125963  00000+0  89281-2 0  9993
2 57879  43.0028  22.3476 0001539 218.1140 141.9594 15.03556530134985
STARLINK-30436          
1 57880U 23144S   26051.28234874 -.00000001  00000+0  15014-4 0  9990
2 57880  42.9991  21.9230 0001242 218.7744 141.3010 15.02534603134998
STARLINK-30339          
1 57882U 23144U   26051.27902624 -.00000008  00000+0  14454-4 0  9990
2 57882  43.0035  21.9041 0000824 262.4699  97.6050 15.02535514134990
STARLINK-30282          
1 57883U 23144V   26051.25002315  .00049521  00000+0  32075-2 0  9996
2 57883  43.0007  21.9369 0001674 234.6527  22.6710 15.07409177  5772
STARLINK-30340          
1 57884U 23144W   26051.26813847  .00100760  00000+0  72101-2 0  9995
2 57884  43.0012  21.8119 0001802 230.3975 129.6709 15.03348929134990
STARLINK-30279          
1 57885U 23144X   26051.26884873  .00161177  00000+0  10908-1 0  9998
2 57885  43.0058  21.8250 0002984 237.2577 122.7979 15.05084278134936
STARLINK-30465          
1 57891U 23146A   26051.00931131  .00000273  00000+0  35290-4 0  9992
2 57891  43.0035  49.6729 0000903 260.0888  99.9853 15.02537869134409
STARLINK-30470          
1 57892U 23146B   26051.07244513  .00001818  00000+0  14956-3 0  9992
2 57892  43.0045  49.2848 0001483 287.2293  72.8387 15.02548360134415
STARLINK-30473          
1 57893U 23146C   26051.04914332 -.00000087  00000+0  86300-5 0  9995
2 57893  43.0030  49.0550 0000987 255.9678 104.1055 15.02534762134417
STARLINK-30443          
1 57894U 23146D   26051.06580217  .00000074  00000+0  20556-4 0  9994
2 57894  43.0027  49.2373 0000825 247.7037 112.3718 15.02534365134414
STARLINK-30467          
1 57895U 23146E   26051.00265298  .00000073  00000+0  20461-4 0  9992
2 57895  43.0035  49.6248 0001163 272.9373  87.1336 15.02534330134404
STARLINK-30469          
1 57896U 23146F   26051.06247981 -.00001875  00000+0 -12375-3 0  9995
2 57896  43.0044  49.2157 0002831 292.3650  67.6893 15.02529948134418
