[{"OBJECT_NAME":"STARLINK-30434","OBJECT_ID":"2023-144M","EPOCH":"2026-02-19T07:14:38.301216","MEAN_MOTION":15.02533816,"ECCENTRICITY":0.000111,"INCLINATION":43.0025,"RA_OF_ASC_NODE":27.4717,"ARG_OF_PERICENTER":267.1382,"MEAN_ANOMALY":92.9333,"EPHEMERIS_TYPE":0,"CLASSIFICATION_TYPE":"U","NORAD_CAT_ID":57875,"ELEMENT_SET_NO":999,"REV_AT_EPOCH":13485,"BSTAR":6.7737e-5,"MEAN_MOTION_DOT":7.11e-6,"MEAN_MOTION_DDOT":0},{"OBJECT_NAME":"STARLINK-30429","OBJECT_ID":"2023-144N","EPOCH":"2026-02-19T08:45:34.380000","MEAN_MOTION":15.02533712,"ECCENTRICITY":0.00010893,"INCLINATION":43.0032,"RA_OF_ASC_NODE":27.0875,"ARG_OF_PERICENTER":265.8742,"MEAN_ANOMALY":94.1976,"EPHEMERIS_TYPE":0,"CLASSIFICATION_TYPE":"U","NORAD_CAT_ID":57876,"ELEMENT_SET_NO":999,"REV_AT_EPOCH":13485,"BSTAR":5.6014262e-5,"MEAN_MOTION_DOT":5.53e-6,"MEAN_MOTION_DDOT":0},{"OBJECT_NAME":"STARLINK-30284","OBJECT_ID":"2023-144P","EPOCH":"2026-02-20T03:41:11.585184","MEAN_MOTION":15.02535827,"ECCENTRICITY":0.00011725,"INCLINATION":43.005,"RA_OF_ASC_NODE":344.4421,"ARG_OF_PERICENTER":260.374,"MEAN_ANOMALY":99.697,"EPHEMERIS_TYPE":0,"CLASSIFICATION_TYPE":"U","NORAD_CAT_ID":57877,"ELEMENT_SET_NO":999,"REV_AT_EPOCH":13541,"BSTAR":3.2408888e-5,"MEAN_MOTION_DOT":2.34e-6,"MEAN_MOTION_DDOT":0},{"OBJECT_NAME":"STARLINK-30433","OBJECT_ID":"2023-144Q","EPOCH":"2026-02-20T06:00:02.000160","MEAN_MOTION":15.08190431,"ECCENTRICITY":9.161e-5,"INCLINATION":43.0011,"RA_OF_ASC_NODE":22.1667,"ARG_OF_PERICENTER":318.8964,"MEAN_ANOMALY":201.656,"EPHEMERIS_TYPE":0,"CLASSIFICATION_TYPE":"U","NORAD_CAT_ID":57878,"ELEMENT_SET_NO":999,"REV_AT_EPOCH":583,"BSTAR":0.0031020915,"MEAN_MOTION_DOT":0.00048916,"MEAN_MOTION_DDOT":0},{"OBJECT_NAME":"STARLINK-30358","OBJECT_ID":"2023-144R","EPOCH":"2026-02-20T05:20:24.283392","MEAN_MOTION":15.0355653,"ECCENTRICITY":0.00015394,"INCLINATION":43.0028,"RA_OF_ASC_NODE":22.3476,"ARG_OF_PERICENTER":218.114,"MEAN_ANOMALY":141.9594,"EPHEMERIS_TYPE":0,"CLASSIFICATION_TYPE":"U","NORAD_CAT_ID":57879,"ELEMENT_SET_NO":999,"REV_AT_EPOCH":13498,"BSTAR":0.0089280999,"MEAN_MOTION_DOT":0.00125963,"MEAN_MOTION_DDOT":0},{"OBJECT_NAME":"STARLINK-30436","OBJECT_ID":"2023-144S","EPOCH":"2026-02-20T06:46:34.931136","MEAN_MOTION":15.02534603,"ECCENTRICITY":0.00012423,"INCLINATION":42.9991,"RA_OF_ASC_NODE":21.923,"ARG_OF_PERICENTER":218.7744,"MEAN_ANOMALY":141.301,"EPHEMERIS_TYPE":0,"CLASSIFICATION_TYPE":"U","NORAD_CAT_ID":57880,"ELEMENT_SET_NO":999,"REV_AT_EPOCH":13499,"BSTAR":1.5014037e-5,"MEAN_MOTION_DOT":-1.0e-8,"MEAN_MOTION_DDOT":0},{"OBJECT_NAME":"STARLINK-30339","OBJECT_ID":"2023-144U","EPOCH":"2026-02-20T06:41:47.867136","MEAN_MOTION":15.02535514,"ECCENTRICITY":8.246e-5,"INCLINATION":43.0035,"RA_OF_ASC_NODE":21.9041,"ARG_OF_PERICENTER":262.4699,"MEAN_ANOMALY":97.605,"EPHEMERIS_TYPE":0,"CLASSIFICATION_TYPE":"U","NORAD_CAT_ID":57882,"ELEMENT_SET_NO":999,"REV_AT_EPOCH":13499,"BSTAR":1.4453761e-5,"MEAN_MOTION_DOT":-8.0e-8,"MEAN_MOTION_DDOT":0},{"OBJECT_NAME":"STARLINK-30282","OBJECT_ID":"2023-144V","EPOCH":"2026-02-20T06:00:02.000160","MEAN_MOTION":15.07409177,"ECCENTRICITY":0.00016741,"INCLINATION":43.0007,"RA_OF_ASC_NODE":21.9369,"ARG_OF_PERICENTER":234.6527,"MEAN_ANOMALY":22.671,"EPHEMERIS_TYPE":0,"CLASSIFICATION_TYPE":"U","NORAD_CAT_ID":57883,"ELEMENT_SET_NO":999,"REV_AT_EPOCH":577,"BSTAR":0.0032074514,"MEAN_MOTION_DOT":0.00049521,"MEAN_MOTION_DDOT":0},{"OBJECT_NAME":"STARLINK-30340","OBJECT_ID":"2023-144W","EPOCH":"2026-02-20T06:26:07.163808","MEAN_MOTION":15.03348929,"ECCENTRICITY":0.0001802,"INCLINATION":43.0012,"RA_OF_ASC_NODE":21.8119,"ARG_OF_PERICENTER":230.3975,"MEAN_ANOMALY":129.6709,"EPHEMERIS_TYPE":0,"CLASSIFICATION_TYPE":"U","NORAD_CAT_ID":57884,"ELEMENT_SET_NO":999,"REV_AT_EPOCH":13499,"BSTAR":0.0072101319,"MEAN_MOTION_DOT":0.0010076,"MEAN_MOTION_DDOT":0},{"OBJECT_NAME":"STARLINK-30279","OBJECT_ID":"2023-144X","EPOCH":"2026-02-20T06:27:08.530272","MEAN_MOTION":15.05084278,"ECCENTRICITY":0.00029842,"INCLINATION":43.0058,"RA_OF_ASC_NODE":21.825,"ARG_OF_PERICENTER":237.2577,"MEAN_ANOMALY":122.7979,"EPHEMERIS_TYPE":0,"CLASSIFICATION_TYPE":"U","NORAD_CAT_ID":57885,"ELEMENT_SET_NO":999,"REV_AT_EPOCH":13493,"BSTAR":0.010907873,"MEAN_MOTION_DOT":0.00161177,"MEAN_MOTION_DDOT":0},{"OBJECT_NAME":"STARLINK-30465","OBJECT_ID":"2023-146A","EPOCH":"2026-02-20T00:13:24.497184","MEAN_MOTION":15.02537869,"ECCENTRICITY":9.032e-5,"INCLINATION":43.0035,"RA_OF_ASC_NODE":49.6729,"ARG_OF_PERICENTER":260.0888,"MEAN_ANOMALY":99.9853,"EPHEMERIS_TYPE":0,"CLASSIFICATION_TYPE":"U","NORAD_CAT_ID":57891,"ELEMENT_SET_NO":999,"REV_AT_EPOCH":13440,"BSTAR":3.5289794e-5,"MEAN_MOTION_DOT":2.73e-6,"MEAN_MOTION_DDOT":0},{"OBJECT_NAME":"STARLINK-30470","OBJECT_ID":"2023-146B","EPOCH":"2026-02-20T01:44:19.259232","MEAN_MOTION":15.0254836,"ECCENTRICITY":0.00014839,"INCLINATION":43.0045,"RA_OF_ASC_NODE":49.2848,"ARG_OF_PERICENTER":287.2293,"MEAN_ANOMALY":72.8387,"EPHEMERIS_TYPE":0,"CLASSIFICATION_TYPE":"U","NORAD_CAT_ID":57892,"ELEMENT_SET_NO":999,"REV_AT_EPOCH":13441,"BSTAR":0.00014955883,"MEAN_MOTION_DOT":1.818e-5,"MEAN_MOTION_DDOT":0},{"OBJECT_NAME":"STARLINK-30473","OBJECT_ID":"2023-146C","EPOCH":"2026-02-20T01:10:45.982848","MEAN_MOTION":15.02534762,"ECCENTRICITY":9.873e-5,"INCLINATION":43.003,"RA_OF_ASC_NODE":49.055,"ARG_OF_PERICENTER":255.9678,"MEAN_ANOMALY":104.1055,"EPHEMERIS_TYPE":0,"CLASSIFICATION_TYPE":"U","NORAD_CAT_ID":57893,"ELEMENT_SET_NO":999,"REV_AT_EPOCH":13441,"BSTAR":8.629978e-6,"MEAN_MOTION_DOT":-8.7e-7,"MEAN_MOTION_DDOT":0},{"OBJECT_NAME":"STARLINK-30443","OBJECT_ID":"2023-146D","EPOCH":"2026-02-20T01:34:45.307488","MEAN_MOTION":15.02534365,"ECCENTRICITY":8.258e-5,"INCLINATION":43.0027,"RA_OF_ASC_NODE":49.2373,"ARG_OF_PERICENTER":247.7037,"MEAN_ANOMALY":112.3718,"EPHEMERIS_TYPE":0,"CLASSIFICATION_TYPE":"U","NORAD_CAT_ID":57894,"ELEMENT_SET_NO":999,"REV_AT_EPOCH":13441,"BSTAR":2.0556395e-5,"MEAN_MOTION_DOT":7.4e-7,"MEAN_MOTION_DDOT":0},{"OBJECT_NAME":"STARLINK-30467","OBJECT_ID":"2023-146E","EPOCH":"2026-02-20T00:03:49.217472","MEAN_MOTION":15.0253433,"ECCENTRICITY":0.00011635,"INCLINATION":43.0035,"RA_OF_ASC_NODE":49.6248,"ARG_OF_PERICENTER":272.9373,"MEAN_ANOMALY":87.1336,"EPHEMERIS_TYPE":0,"CLASSIFICATION_TYPE":"U","NORAD_CAT_ID":57895,"ELEMENT_SET_NO":999,"REV_AT_EPOCH":13440,"BSTAR":2.0461284e-5,"MEAN_MOTION_DOT":7.3e-7,"MEAN_MOTION_DDOT":0},{"OBJECT_NAME":"STARLINK-30469","OBJECT_ID":"2023-146F","EPOCH":"2026-02-20T01:29:58.255584","MEAN_MOTION":15.02529948,"ECCENTRICITY":0.0002831,"INCLINATION":43.0044,"RA_OF_ASC_NODE":49.2157,"ARG_OF_PERICENTER":292.365,"MEAN_ANOMALY":67.6893,"EPHEMERIS_TYPE":0,"CLASSIFICATION_TYPE":"U","NORAD_CAT_ID":57896,"ELEMENT_SET_NO":999,"REV_AT_EPOCH":13441,"BSTAR":-0.00012375344,"MEAN_MOTION_DOT":-1.875e-5,"MEAN_MOTION_DDOT":0}]
